{"type": "FeatureCollection", "features": [ {"type": "Feature", "properties": {"norad_id": 17070, "name": "POLAR BEAR", "group": "nnss", "lat": 3.81248923750147, "lon": 3.6881938478782907, "alt_km": 968.6385295579903, "timestamp": "2025-12-14T05:42:18.728413+00:00", "meta": {"OBJECT_NAME": "POLAR BEAR", "OBJECT_ID": "1986-088A", "EPOCH": "2025-12-13T15:14:01.606848", "MEAN_MOTION": 13.75250909, "ECCENTRICITY": 0.00410266, "INCLINATION": 89.6173, "RA_OF_ASC_NODE": 183.738, "ARG_OF_PERICENTER": 116.6417, "MEAN_ANOMALY": 315.5624, "EPHEMERIS_TYPE": 0, "CLASSIFICATION_TYPE": "U", "NORAD_CAT_ID": 17070, "ELEMENT_SET_NO": 999, "REV_AT_EPOCH": 95991, "BSTAR": 0.00013726016, "MEAN_MOTION_DOT": 1.44e-06, "MEAN_MOTION_DDOT": 0}, "tle": {"line1": "1 17070U 86088A   25347.63474082  .00000144  00000+0  13726-3 0  9990", "line2": "2 17070  89.6173 183.7380 0041026 116.6417 315.5624 13.75250909959910"}}, "geometry": {"type": "Point", "coordinates": [3.6881938478782907, 3.81248923750147]}}, {"type": "Feature", "properties": {"norad_id": 18361, "name": "OSCAR 27", "group": "nnss", "lat": -89.2849434810981, "lon": 110.91230693411924, "alt_km": 1049.770287970976, "timestamp": "2025-12-14T05:42:18.728424+00:00", "meta": {"OBJECT_NAME": "OSCAR 27", "OBJECT_ID": "1987-080A", "EPOCH": "2025-12-13T15:51:54.969696", "MEAN_MOTION": 13.449069, "ECCENTRICITY": 0.01029824, "INCLINATION": 90.3743, "RA_OF_ASC_NODE": 79.3069, "ARG_OF_PERICENTER": 221.1462, "MEAN_ANOMALY": 138.189, "EPHEMERIS_TYPE": 0, "CLASSIFICATION_TYPE": "U", "NORAD_CAT_ID": 18361, "ELEMENT_SET_NO": 999, "REV_AT_EPOCH": 87569, "BSTAR": 0.00020145558, "MEAN_MOTION_DOT": 1.3e-06, "MEAN_MOTION_DDOT": 0}, "tle": {"line1": "1 18361U 87080A   25347.66105289  .00000130  00000+0  20146-3 0  9999", "line2": "2 18361  90.3743  79.3069 0102982 221.1462 138.1890 13.44906900875692"}}, "geometry": {"type": "Point", "coordinates": [110.91230693411924, -89.2849434810981]}}, {"type": "Feature", "properties": {"norad_id": 18362, "name": "OSCAR 29", "group": "nnss", "lat": -79.87543450291061, "lon": 81.8908005154024, "alt_km": 1038.1206424914335, "timestamp": "2025-12-14T05:42:18.728435+00:00", "meta": {"OBJECT_NAME": "OSCAR 29", "OBJECT_ID": "1987-080B", "EPOCH": "2025-12-13T16:40:20.604288", "MEAN_MOTION": 13.44448562, "ECCENTRICITY": 0.01039726, "INCLINATION": 90.3753, "RA_OF_ASC_NODE": 79.767, "ARG_OF_PERICENTER": 244.3921, "MEAN_ANOMALY": 288.2929, "EPHEMERIS_TYPE": 0, "CLASSIFICATION_TYPE": "U", "NORAD_CAT_ID": 18362, "ELEMENT_SET_NO": 999, "REV_AT_EPOCH": 87522, "BSTAR": 0.00017478508, "MEAN_MOTION_DOT": 1.12e-06, "MEAN_MOTION_DDOT": 0}, "tle": {"line1": "1 18362U 87080B   25347.69468292  .00000112  00000+0  17479-3 0  9994", "line2": "2 18362  90.3753  79.7670 0103972 244.3921 288.2929 13.44448562875227"}}, "geometry": {"type": "Point", "coordinates": [81.8908005154024, -79.87543450291061]}}, {"type": "Feature", "properties": {"norad_id": 19070, "name": "OSCAR 23", "group": "nnss", "lat": -33.9536006632242, "lon": 16.655651504512825, "alt_km": 1284.837427516536, "timestamp": "2025-12-14T05:42:18.728445+00:00", "meta": {"OBJECT_NAME": "OSCAR 23", "OBJECT_ID": "1988-033A", "EPOCH": "2025-12-13T16:01:05.914848", "MEAN_MOTION": 13.27787249, "ECCENTRICITY": 0.01896017, "INCLINATION": 90.3213, "RA_OF_ASC_NODE": 16.4214, "ARG_OF_PERICENTER": 177.3446, "MEAN_ANOMALY": 303.3074, "EPHEMERIS_TYPE": 0, "CLASSIFICATION_TYPE": "U", "NORAD_CAT_ID": 19070, "ELEMENT_SET_NO": 999, "REV_AT_EPOCH": 82265, "BSTAR": 0.00017212872, "MEAN_MOTION_DOT": 9.4e-07, "MEAN_MOTION_DDOT": 0}, "tle": {"line1": "1 19070U 88033A   25347.66742957  .00000094  00000+0  17213-3 0  9995", "line2": "2 19070  90.3213  16.4214 0189601 177.3446 303.3074 13.27787249822655"}}, "geometry": {"type": "Point", "coordinates": [16.655651504512825, -33.9536006632242]}}, {"type": "Feature", "properties": {"norad_id": 19071, "name": "OSCAR 32", "group": "nnss", "lat": 74.08066962794875, "lon": 15.442279738785482, "alt_km": 1141.16971547323, "timestamp": "2025-12-14T05:42:18.728456+00:00", "meta": {"OBJECT_NAME": "OSCAR 32", "OBJECT_ID": "1988-033B", "EPOCH": "2025-12-13T15:26:28.350816", "MEAN_MOTION": 13.27954086, "ECCENTRICITY": 0.01884391, "INCLINATION": 90.3218, "RA_OF_ASC_NODE": 16.5527, "ARG_OF_PERICENTER": 164.2817, "MEAN_ANOMALY": 312.3528, "EPHEMERIS_TYPE": 0, "CLASSIFICATION_TYPE": "U", "NORAD_CAT_ID": 19071, "ELEMENT_SET_NO": 999, "REV_AT_EPOCH": 82277, "BSTAR": 0.00018489187, "MEAN_MOTION_DOT": 1.01e-06, "MEAN_MOTION_DDOT": 0}, "tle": {"line1": "1 19071U 88033B   25347.64338369  .00000101  00000+0  18489-3 0  9997", "line2": "2 19071  90.3218  16.5527 0188439 164.2817 312.3528 13.27954086822776"}}, "geometry": {"type": "Point", "coordinates": [15.442279738785482, 74.08066962794875]}}, {"type": "Feature", "properties": {"norad_id": 19223, "name": "NOVA 2", "group": "nnss", "lat": -66.24513275268995, "lon": -101.70004915687784, "alt_km": 1194.551512845659, "timestamp": "2025-12-14T05:42:18.728466+00:00", "meta": {"OBJECT_NAME": "NOVA 2", "OBJECT_ID": "1988-052A", "EPOCH": "2025-12-13T16:36:29.236320", "MEAN_MOTION": 13.22935932, "ECCENTRICITY": 0.003051, "INCLINATION": 89.9871, "RA_OF_ASC_NODE": 78.2713, "ARG_OF_PERICENTER": 14.3163, "MEAN_ANOMALY": 154.6747, "EPHEMERIS_TYPE": 0, "CLASSIFICATION_TYPE": "U", "NORAD_CAT_ID": 19223, "ELEMENT_SET_NO": 999, "REV_AT_EPOCH": 80960, "BSTAR": 0.00015150283, "MEAN_MOTION_DOT": 7.2e-07, "MEAN_MOTION_DDOT": 0}, "tle": {"line1": "1 19223U 88052A   25347.69200505  .00000072  00000+0  15150-3 0  9991", "line2": "2 19223  89.9871  78.2713 0030510  14.3163 154.6747 13.22935932809602"}}, "geometry": {"type": "Point", "coordinates": [-101.70004915687784, -66.24513275268995]}}, {"type": "Feature", "properties": {"norad_id": 19419, "name": "OSCAR 25", "group": "nnss", "lat": 68.52121282236386, "lon": 20.161081575435336, "alt_km": 1163.0798360550552, "timestamp": "2025-12-14T05:42:18.728493+00:00", "meta": {"OBJECT_NAME": "OSCAR 25", "OBJECT_ID": "1988-074A", "EPOCH": "2025-12-13T15:39:53.608320", "MEAN_MOTION": 13.4262341, "ECCENTRICITY": 0.00944837, "INCLINATION": 90.0347, "RA_OF_ASC_NODE": 20.2473, "ARG_OF_PERICENTER": 243.193, "MEAN_ANOMALY": 239.5418, "EPHEMERIS_TYPE": 0, "CLASSIFICATION_TYPE": "U", "NORAD_CAT_ID": 19419, "ELEMENT_SET_NO": 999, "REV_AT_EPOCH": 82652, "BSTAR": 0.0001902703, "MEAN_MOTION_DOT": 1.19e-06, "MEAN_MOTION_DDOT": 0}, "tle": {"line1": "1 19419U 88074A   25347.65270380  .00000119  00000+0  19027-3 0  9995", "line2": "2 19419  90.0347  20.2473 0094483 243.1930 239.5418 13.42623410826528"}}, "geometry": {"type": "Point", "coordinates": [20.161081575435336, 68.52121282236386]}}, {"type": "Feature", "properties": {"norad_id": 19420, "name": "OSCAR 31", "group": "nnss", "lat": -46.79154893881184, "lon": 20.63819189073389, "alt_km": 1091.04001481246, "timestamp": "2025-12-14T05:42:18.728520+00:00", "meta": {"OBJECT_NAME": "OSCAR 31", "OBJECT_ID": "1988-074B", "EPOCH": "2025-12-13T16:15:14.842368", "MEAN_MOTION": 13.42584694, "ECCENTRICITY": 0.00928063, "INCLINATION": 90.0363, "RA_OF_ASC_NODE": 20.5975, "ARG_OF_PERICENTER": 237.2434, "MEAN_ANOMALY": 247.7295, "EPHEMERIS_TYPE": 0, "CLASSIFICATION_TYPE": "U", "NORAD_CAT_ID": 19420, "ELEMENT_SET_NO": 999, "REV_AT_EPOCH": 82663, "BSTAR": 0.00016034805, "MEAN_MOTION_DOT": 1.01e-06, "MEAN_MOTION_DDOT": 0}, "tle": {"line1": "1 19420U 88074B   25347.67725512  .00000101  00000+0  16035-3 0  9998", "line2": "2 19420  90.0363  20.5975 0092806 237.2434 247.7295 13.42584694826634"}}, "geometry": {"type": "Point", "coordinates": [20.63819189073389, -46.79154893881184]}}]}